QIANFAN-41              
1 62242U 24232F   25348.24336550  .00000104  00000+0  14220-3 0  9995
2 62242  89.0026  41.0457 0014335 179.1435 180.9743 13.50978608 99456
QIANFAN-42              
1 62243U 24232G   25348.31816510  .00000479  00000+0  20041-3 0  9996
2 62243  89.0016  37.1772 0017244  82.0380 278.2769 14.24488390101599
QIANFAN-43              
1 62244U 24232H   25348.31326721  .00000105  00000+0  14416-3 0  9992
2 62244  89.0030  41.1041 0015662 184.8254 175.2749 13.50977537 68076
QIANFAN-44              
1 62245U 24232J   25348.30097764  .00000103  00000+0  14091-3 0  9991
2 62245  89.0029  40.9161 0013988 181.0363 179.0761 13.50979812 99544
QIANFAN-45              
1 62246U 24232K   25348.34209413  .00000098  00000+0  13363-3 0  9996
2 62246  89.0032  41.0585 0014662 180.9263 179.1864 13.50975794 99470
QIANFAN-46              
1 62247U 24232L   25348.29271474  .00000115  00000+0  15940-3 0  9990
2 62247  89.0028  41.1324 0014515 186.5338 173.5626 13.50981879 99420
QIANFAN-47              
1 62248U 24232M   25348.29686436  .00000108  00000+0  14933-3 0  9992
2 62248  89.0024  41.0649 0014968 185.8977 174.2000 13.50977886 99459
QIANFAN-48              
1 62249U 24232N   25348.25981183  .00000121  00000+0  16911-3 0  9999
2 62249  89.0028  41.0705 0017117 189.5942 170.4885 13.50979697 99450
